<?xml version='1.0' ?>
<osm version='0.6' generator='nmea_to_osm'>
  <node id='-10000' lat='28.1738406625' lon='112.9411494675'/>
  <node id='-10001' lat='28.1737966065' lon='112.9411634005'/>
  <node id='-10002' lat='28.173735746' lon='112.94118679'/>
  <node id='-10003' lat='28.173675418' lon='112.94120851933333'/>
  <node id='-10004' lat='28.173614360666665' lon='112.94123265883333'/>
  <node id='-10005' lat='28.173554508166667' lon='112.9412587705'/>
  <node id='-10006' lat='28.173494137333332' lon='112.94128531083334'/>
  <node id='-10007' lat='28.173436368166666' lon='112.941317664'/>
  <node id='-10008' lat='28.173383529166667' lon='112.94135938366666'/>
  <node id='-10009' lat='28.1733357235' lon='112.941407991'/>
  <node id='-10010' lat='28.173292574' lon='112.94146187'/>
  <node id='-10011' lat='28.1732547945' lon='112.94152116566667'/>
  <node id='-10012' lat='28.173219915666667' lon='112.94158215783334'/>
  <node id='-10013' lat='28.173183823' lon='112.941643481'/>
  <node id='-10014' lat='28.173144267166666' lon='112.94170076483333'/>
  <node id='-10015' lat='28.1731120735' lon='112.94173117433333'/>
  <node id='-10016' lat='28.173091568166665' lon='112.94173954516667'/>
  <node id='-10017' lat='28.1730700805' lon='112.941741274'/>
  <node id='-10018' lat='28.173046066333335' lon='112.94173481183333'/>
  <node id='-10019' lat='28.173027752333333' lon='112.94172343183334'/>
  <node id='-10020' lat='28.1730093445' lon='112.94170520916667'/>
  <node id='-10021' lat='28.172970635166667' lon='112.9416474695'/>
  <node id='-10022' lat='28.172939851333332' lon='112.9415848715'/>
  <node id='-10023' lat='28.172909717166668' lon='112.94152150016667'/>
  <node id='-10024' lat='28.172882594' lon='112.941456323'/>
  <node id='-10025' lat='28.172851823' lon='112.94139134866667'/>
  <node id='-10026' lat='28.1728238375' lon='112.94132550866667'/>
  <node id='-10027' lat='28.172802049166666' lon='112.94125758016666'/>
  <node id='-10028' lat='28.172780928333335' lon='112.94118925966667'/>
  <node id='-10029' lat='28.172756082' lon='112.94112041616667'/>
  <node id='-10030' lat='28.172725208333333' lon='112.94105625483333'/>
  <node id='-10031' lat='28.172688645166666' lon='112.94099502166667'/>
  <node id='-10032' lat='28.172656718833334' lon='112.94093334016667'/>
  <node id='-10033' lat='28.172626958166667' lon='112.94087022533333'/>
  <node id='-10034' lat='28.172593093333333' lon='112.94080722133333'/>
  <node id='-10035' lat='28.172558765166666' lon='112.94074606833334'/>
  <way id='-9999'>
    <nd ref='-10000'/>
    <nd ref='-10001'/>
    <nd ref='-10002'/>
    <nd ref='-10003'/>
    <nd ref='-10004'/>
    <nd ref='-10005'/>
    <nd ref='-10006'/>
    <nd ref='-10007'/>
    <nd ref='-10008'/>
    <nd ref='-10009'/>
    <nd ref='-10010'/>
    <nd ref='-10011'/>
    <nd ref='-10012'/>
    <nd ref='-10013'/>
    <nd ref='-10014'/>
    <nd ref='-10015'/>
    <nd ref='-10016'/>
    <nd ref='-10017'/>
    <nd ref='-10018'/>
    <nd ref='-10019'/>
    <nd ref='-10020'/>
    <nd ref='-10021'/>
    <nd ref='-10022'/>
    <nd ref='-10023'/>
    <nd ref='-10024'/>
    <nd ref='-10025'/>
    <nd ref='-10026'/>
    <nd ref='-10027'/>
    <nd ref='-10028'/>
    <nd ref='-10029'/>
    <nd ref='-10030'/>
    <nd ref='-10031'/>
    <nd ref='-10032'/>
    <nd ref='-10033'/>
    <nd ref='-10034'/>
    <nd ref='-10035'/>
  </way>
</osm>
