<?xml version="1.0" ?>
<osm version="0.6" generator="nmea_to_osm">
  <way id="-9999">
    <nd ref="-10000"/>
    <nd ref="-10001"/>
    <nd ref="-10002"/>
    <nd ref="-10003"/>
    <nd ref="-10004"/>
    <nd ref="-10005"/>
    <nd ref="-10006"/>
  </way>
  <node id="-10000" lat="28.1738232585" lon="112.94417355933334"/>
  <node id="-10001" lat="28.173865641166667" lon="112.94419107266667"/>
  <node id="-10002" lat="28.173878742166668" lon="112.94420598833334"/>
  <node id="-10003" lat="28.1739199535" lon="112.94426087466667"/>
  <node id="-10004" lat="28.173964609166667" lon="112.94431277483334"/>
  <node id="-10005" lat="28.173997446" lon="112.944371997"/>
  <node id="-10006" lat="28.174003351833335" lon="112.94439208416667"/>
</osm>
